{
    "links": {
        "self": "http://www.neowsapp.com/rest/v1/neo/3278966?api_key=iIulBulltgU6a56xZRHN4H3l9WmuAYTsLGpBGhQ2"
    },
    "id": "3278966",
    "neo_reference_id": "3278966",
    "name": "(2005 KD7)",
    "designation": "2005 KD7",
    "nasa_jpl_url": "http://ssd.jpl.nasa.gov/sbdb.cgi?sstr=3278966",
    "absolute_magnitude_h": 20.6,
    "estimated_diameter": {
        "kilometers": {
            "estimated_diameter_min": 0.2016299194,
            "estimated_diameter_max": 0.4508582062
        },
        "meters": {
            "estimated_diameter_min": 201.6299194428,
            "estimated_diameter_max": 450.8582061718
        },
        "miles": {
            "estimated_diameter_min": 0.1252869847,
            "estimated_diameter_max": 0.2801502144
        },
        "feet": {
            "estimated_diameter_min": 661.5155049046,
            "estimated_diameter_max": 1479.1936371367
        }
    },
    "is_potentially_hazardous_asteroid": false,
    "close_approach_data": [
        {
            "close_approach_date": "1995-05-22",
            "close_approach_date_full": "1995-May-22 21:54",
            "epoch_date_close_approach": 801179640000,
            "relative_velocity": {
                "kilometers_per_second": "32.9470813926",
                "kilometers_per_hour": "118609.4930132704",
                "miles_per_hour": "73699.3263670512"
            },
            "miss_distance": {
                "astronomical": "0.4271298594",
                "lunar": "166.1535153066",
                "kilometers": "63897717.179639478",
                "miles": "39704200.3471936764"
            },
            "orbiting_body": "Earth"
        },
        {
            "close_approach_date": "2000-05-30",
            "close_approach_date_full": "2000-May-30 03:37",
            "epoch_date_close_approach": 959657820000,
            "relative_velocity": {
                "kilometers_per_second": "26.7846711528",
                "kilometers_per_hour": "96424.8161502359",
                "miles_per_hour": "59914.6309017952"
            },
            "miss_distance": {
                "astronomical": "0.2543584846",
                "lunar": "98.9454505094",
                "kilometers": "38051487.512587802",
                "miles": "23644097.9489315876"
            },
            "orbiting_body": "Earth"
        },
        {
            "close_approach_date": "2005-06-03",
            "close_approach_date_full": "2005-Jun-03 08:51",
            "epoch_date_close_approach": 1117788660000,
            "relative_velocity": {
                "kilometers_per_second": "22.2946914812",
                "kilometers_per_hour": "80260.8893321796",
                "miles_per_hour": "49870.995374209"
            },
            "miss_distance": {
                "astronomical": "0.256264717",
                "lunar": "99.686974913",
                "kilometers": "38336655.81935279",
                "miles": "23821293.318096902"
            },
            "orbiting_body": "Earth"
        },
        {
            "close_approach_date": "2006-12-20",
            "close_approach_date_full": "2006-Dec-20 18:57",
            "epoch_date_close_approach": 1166641020000,
            "relative_velocity": {
                "kilometers_per_second": "31.6567920891",
                "kilometers_per_hour": "113964.4515207776",
                "miles_per_hour": "70813.0782241188"
            },
            "miss_distance": {
                "astronomical": "0.4069406921",
                "lunar": "158.2999292269",
                "kilometers": "60877460.754485827",
                "miles": "37827500.0283533326"
            },
            "orbiting_body": "Earth"
        },
        {
            "close_approach_date": "2010-06-01",
            "close_approach_date_full": "2010-Jun-01 22:34",
            "epoch_date_close_approach": 1275431640000,
            "relative_velocity": {
                "kilometers_per_second": "20.1358737366",
                "kilometers_per_hour": "72489.1454517002",
                "miles_per_hour": "45041.9359613634"
            },
            "miss_distance": {
                "astronomical": "0.4104137016",
                "lunar": "159.6509299224",
                "kilometers": "61397015.578175592",
                "miles": "38150336.4256714896"
            },
            "orbiting_body": "Earth"
        }
    ],
    "orbital_data": {
        "orbit_id": "16",
        "orbit_determination_date": "2017-04-06 09:10:56",
        "first_observation_date": "2005-05-20",
        "last_observation_date": "2005-06-13",
        "data_arc_in_days": 24,
        "observations_used": 74,
        "orbit_uncertainty": "8",
        "minimum_orbit_intersection": ".225854",
        "jupiter_tisserand_invariant": "5.060",
        "epoch_osculation": "2453516.5",
        "eccentricity": ".5556752637114364",
        "semi_major_axis": "1.167360214508133",
        "inclination": "40.08119489983907",
        "ascending_node_longitude": "240.1399363817052",
        "orbital_period": "460.6867892790725",
        "perihelion_distance": ".5186870194650871",
        "perihelion_argument": "137.4741173676654",
        "aphelion_distance": "1.816033409551178",
        "perihelion_time": "2453604.986399225450",
        "mean_anomaly": "290.8530123665756",
        "mean_motion": ".7814419870024123",
        "equinox": "J2000",
        "orbit_class": {
            "orbit_class_type": "APO",
            "orbit_class_description": "Near-Earth asteroid orbits which cross the Earth’s orbit similar to that of 1862 Apollo",
            "orbit_class_range": "a (semi-major axis) > 1.0 AU; q (perihelion) < 1.017 AU"
        }
    },
    "is_sentry_object": false
}